FALCON 9 DEB            
1 53091U 22077BA  22210.55028696  .00139036  95745-5  39736-3 0  9992
2 53091  97.6691  30.3503 0010299 178.5191 181.6115 15.93178207  2946
FALCON 9 DEB            
1 53092U 22077BB  22210.54702165  .00135353  92141-5  38283-3 0  9993
2 53092  97.6684  30.3532 0010357 163.6086 196.5524 15.93378628  2942
TIANLIAN 2-03           
1 53100U 22078A   22211.38452182  .00000076  00000+0  00000+0 0  9990
2 53100   2.9833 284.8280 0002385 191.4310 340.7904  1.00272052   337
CZ-3B R/B               
1 53101U 22078B   22210.31543202  .00039616  10507-5  11370-2 0  9993
2 53101  27.1565 169.2702 7235890 184.4164 161.2503  2.38185762   401
LARES-2                 
1 53105U 22080A   22210.64997139 -.00000001  00000+0  00000+0 0  9991
2 53105  70.1528  71.8368 0005677 280.5464  79.4747  6.38965227  1036
MTCUBE 2 (ROBUSTA 1F)   
1 53106U 22080B   22210.24922930 -.00000003  00000+0  00000+0 0  9997
2 53106  70.1534  71.9258 0009121 254.4274 105.7886  6.42558135  1005
ASTROBIOCUBESAT         
1 53107U 22080C   22210.25999506 -.00000003  00000+0  00000+0 0  9992
2 53107  70.1574  71.9426 0012553 247.8491 112.0822  6.42110880   918
TRISAT-R                
1 53108U 22080D   22210.25896988 -.00000003  00000+0  00000+0 0  9993
2 53108  70.1632  71.9400 0012627 258.5559 101.3683  6.42152491   912
GREENCUBE               
1 53109U 22080E   22210.55976077 -.00000003  00000+0  00000+0 0  9995
2 53109  70.1365  71.6230 0008936 239.8233 120.1562  6.42583681   917
2022-080F               
1 53110U 22080F   22210.25109638 -.00000003  00000+0  00000+0 0  9995
2 53110  70.1414  71.9375 0090943  88.1365 272.9296  6.42506758   894
CELESTA                 
1 53111U 22080G   22209.16019017 -.00000003  00000+0  00000+0 0  9995
2 53111  70.1517  72.3224 0015664 220.2144 139.7964  6.42532870   816
2022-080H               
1 53112U 22080H   22207.29133216 -.00000003  00000+0  00000+0 0  9996
2 53112  70.1386  72.9501 0009345 259.2772 100.6820  6.42593043   708
DRAGON CRS-25           
1 53113U 22081A   22210.51101939  .00005110  00000+0  96915-4 0  9992
2 53113  51.6427 126.9434 0005036  62.4802 108.3112 15.50163373351745
SUPERVIEW NEO-2 O1      
1 53128U 22082A   22211.46828127  .00002574  00000+0  10710-3 0  9998
2 53128  97.3842 219.2593 0012111 209.3979 308.9322 15.24615728  2213
CZ-2C DEB               
1 53129U 22082B   22210.77759091  .00013246  00000+0  52568-3 0  9990
2 53129  97.3831 218.5900 0012179 219.5643 140.4656 15.25410207  2115
SUPERVIEW NEO-2 02      
1 53130U 22082C   22211.52516003  .00002635  00000+0  10698-3 0  9998
2 53130  97.3839 219.3324 0012155 225.7934 286.4687 15.25418538  2222
CZ-2C R/B               
1 53131U 22082D   22210.74699287  .00005579  00000+0  15592-3 0  9996
2 53131  97.3590 218.6817 0048207 324.5093  35.2940 15.35934194  2120
STARLINK-4063           
1 53132U 22083A   22211.50001157 -.00074388  00000+0 -52982-3 0  9996
2 53132  53.2178 342.9534 0001631  57.2635 110.8041 15.73219651  2682
STARLINK-4154           
1 53133U 22083B   22211.50001157  .00010260  00000+0  77443-4 0  9994
2 53133  53.2174 342.9614 0002893 289.6116 234.8294 15.73198065  2686
STARLINK-4150           
1 53134U 22083C   22211.50001157  .00000851  00000+0  10482-4 0  9990
2 53134  53.2175 342.9573 0001766  61.4522 104.7747 15.73203603  2680
STARLINK-4023           
1 53135U 22083D   22211.50001157  .00000812  00000+0  10202-4 0  9998
2 53135  53.2175 342.9604 0001653  55.3788 109.6559 15.73203622  2683
STARLINK-4152           
1 53136U 22083E   22211.50001157 -.00002308  00000+0 -12025-4 0  9998
2 53136  53.2180 342.9592 0001505  56.3265 109.2796 15.73200896  2682
STARLINK-4145           
1 53137U 22083F   22211.50001157  .00096602  00000+0  68630-3 0  9999
2 53137  53.2175 342.9566 0003560 287.8318 239.0205 15.73144092  2683
STARLINK-4141           
1 53138U 22083G   22211.50001157 -.00655659  00000+0 -49212-2 0  9999
2 53138  53.2177 342.4621 0001652  39.1871  14.2831 15.73759792  2682
STARLINK-4185           
1 53139U 22083H   22211.58334491  .00002732  00000+0  23861-4 0  9998
2 53139  53.2185 342.5427 0001648  46.2788 235.1242 15.73216323  2697
STARLINK-4170           
1 53140U 22083J   22211.50001157  .00000198  00000+0  58238-5 0  9993
2 53140  53.2180 342.9530 0001388  54.8610 113.8297 15.73220664  2687
STARLINK-4103           
1 53141U 22083K   22211.16667824  .00004487  00000+0  36374-4 0  9996
2 53141  53.2175 344.5963 0001603  51.5391  31.1200 15.73201319  2637
STARLINK-4101           
1 53142U 22083L   22211.16667824  .00029686  00000+0  21525-3 0  9996
2 53142  53.2176 344.5996 0003863 284.9478 155.9291 15.73186705  2639
STARLINK-4102           
1 53143U 22083M   22211.50001157 -.00101900  00000+0 -72845-3 0  9999
2 53143  53.2183 342.9471 0001273  45.1243 127.0822 15.73263683  2684
STARLINK-4100           
1 53144U 22083N   22211.16667824  .00047246  00000+0  33999-3 0  9998
2 53144  53.2186 344.6005 0001315 316.4469 125.0227 15.73142469  2631
STARLINK-4106           
1 53145U 22083P   22211.50001157 -.00000637  00000+0 -11696-6 0  9996
2 53145  53.2175 342.9437 0001822  61.3987 111.9805 15.73204873  2683
STARLINK-4099           
1 53146U 22083Q   22211.16667824 -.00048242  00000+0 -34109-3 0  9993
2 53146  53.2184 344.5987 0002504 292.9708 149.1063 15.73207927  2630
STARLINK-4094           
1 53147U 22083R   22211.58334491 -.00002002  00000+0 -98486-5 0  9995
2 53147  53.2179 342.5315 0001045  35.2964 250.8753 15.73217400  2698
STARLINK-4066           
1 53148U 22083S   22211.16667824  .00000539  00000+0  82575-5 0  9992
2 53148  53.2176 344.5937 0001582  62.0795  21.7708 15.73203625  2637
STARLINK-4021           
1 53149U 22083T   22211.16667824 -.00022889  00000+0 -15891-3 0  9992
2 53149  53.2177 344.5755 0001286  46.3136  46.5051 15.73229054  2632
STARLINK-4038           
1 53150U 22083U   22211.16667824  .00048181  00000+0  34613-3 0  9998
2 53150  53.2177 344.5900 0001247  50.7773  34.7641 15.73173568  2631
STARLINK-4040           
1 53151U 22083V   22211.16667824 -.00012011  00000+0 -81191-4 0  9998
2 53151  53.2187 344.5895 0001290  55.8690  31.5660 15.73226004  2638
STARLINK-4045           
1 53152U 22083W   22211.50001157  .00001005  00000+0  11583-4 0  9995
2 53152  53.2175 342.9400 0001735  50.0083 125.1602 15.73203531  2688
STARLINK-4098           
1 53153U 22083X   22211.50001157 -.00001452  00000+0 -59329-5 0  9995
2 53153  53.2185 342.9385 0001307  48.5904 128.3301 15.73187024  2680
STARLINK-4077           
1 53154U 22083Y   22211.16667824  .00048163  00000+0  34575-3 0  9999
2 53154  53.2172 344.5864 0001235  57.3392  29.4234 15.73191058  2639
STARLINK-4088           
1 53155U 22083Z   22211.16667824 -.00000495  00000+0  91985-6 0  9998
2 53155  53.2175 344.5823 0003477 287.2084 162.6018 15.73204971  2639
STARLINK-4087           
1 53156U 22083AA  22211.16667824 -.00000193  00000+0  30437-5 0  9998
2 53156  53.2175 344.5831 0001521  46.3536  42.8607 15.73204666  2637
STARLINK-4093           
1 53157U 22083AB  22211.50001157 -.00002142  00000+0 -10852-4 0  9993
2 53157  53.2184 342.9323 0001537  53.6007 126.3278 15.73181489  2681
STARLINK-4054           
1 53158U 22083AC  22210.91667824  .00012938  00000+0  96513-4 0  9997
2 53158  53.2177 345.8228 0001275  35.6424  76.3484 15.73186986  1300
STARLINK-4111           
1 53159U 22083AD  22211.25001157  .00073610  00000+0  52480-3 0  9995
2 53159  53.2186 344.1672 0003096 288.0766 276.3655 15.73174190  2646
STARLINK-4096           
1 53160U 22083AE  22210.91667824 -.00000300  00000+0  22803-5 0  9993
2 53160  53.2186 345.8219 0001549  42.6697  71.0607 15.73189408  1308
STARLINK-4055           
1 53161U 22083AF  22211.50001157  .00001114  00000+0  12360-4 0  9990
2 53161  53.2175 342.9249 0001770  51.8603 131.0576 15.73203481  2685
STARLINK-4114           
1 53162U 22083AG  22211.25001157  .00000979  00000+0  11394-4 0  9997
2 53162  53.2172 344.1655 0001895  59.5155 144.3180 15.73203371  2645
STARLINK-4104           
1 53163U 22083AH  22211.25001157  .00074525  00000+0  53107-3 0  9993
2 53163  53.2180 344.1594 0001025  52.2868 155.1674 15.73184468  2646
STARLINK-4116           
1 53164U 22083AJ  22210.91667824 -.00012962  00000+0 -87901-4 0  9994
2 53164  53.2175 345.8125 0001588  51.2780  65.3511 15.73244812  1309
STARLINK-4090           
1 53165U 22083AK  22211.25001157  .00004702  00000+0  37890-4 0  9997
2 53165  53.2176 344.1556 0001122  51.1444 157.4495 15.73204335  2649
STARLINK-4110           
1 53166U 22083AL  22211.25001157  .00073477  00000+0  52439-3 0  9998
2 53166  53.2178 344.1597 0001277  52.8826 153.9655 15.73154668  2642
STARLINK-3683           
1 53167U 22083AM  22211.25001157  .00074695  00000+0  53238-3 0  9990
2 53167  53.2173 344.1497 0001313  48.5037 163.1176 15.73179068  2646
STARLINK-4105           
1 53168U 22083AN  22211.50001157 -.00269008  00000+0 -19685-2 0  9992
2 53168  53.2180 342.9207 0001447  57.5455 127.2607 15.73266369  2687
STARLINK-4117           
1 53169U 22083AP  22211.50001157 -.00000250  00000+0  26513-5 0  9995
2 53169  53.2175 342.9154 0002693 289.9975 257.6889 15.73204310  2683
STARLINK-4095           
1 53170U 22083AQ  22211.25001157  .00036070  00000+0  26047-3 0  9997
2 53170  53.2184 344.1569 0001053  43.7318 165.5403 15.73186164  2646
STARLINK-4052           
1 53171U 22083AR  22211.25001157  .00000968  00000+0  11315-4 0  9998
2 53171  53.2172 344.1406 0001467  56.1057 160.2460 15.73203434  2646
STARLINK-4299           
1 53172U 22083AS  22211.58334491  .00001725  00000+0  16710-4 0  9991
2 53172  53.2173 342.5057 0001725  40.9578 257.7700 15.73203163  2691
STARLINK-4300           
1 53173U 22083AT  22211.50001157  .00000761  00000+0  98396-5 0  9994
2 53173  53.2175 342.9107 0001245 314.5588 235.5124 15.73203670  2688
